STARLINK-32432          
1 61257U 24175Q   24298.91667824 -.00010219  00000+0 -17597-3 0  9994
2 61257  53.1592   6.9062 0001339 112.2111   8.0460 15.49299941  5934
STARLINK-32382          
1 61258U 24175R   24298.91667824 -.00984810  00000+0 -19168-1 0  9996
2 61258  53.1592   6.8820 0001355  82.1542  49.5590 15.49601649  5696
STARLINK-32435          
1 61259U 24175S   24298.91667824 -.01532486  00000+0 -40179-1 0  9992
2 61259  53.1593   6.9691 0001013  69.7147  18.7498 15.41312355  5890
STARLINK-32474          
1 61260U 24175T   24298.91667824 -.00011811  00000+0 -20469-3 0  9999
2 61260  53.1591   6.8943 0001243 108.6353  17.3724 15.49299916  5898
STARLINK-32447          
1 61261U 24175U   24298.91667824 -.00010533  00000+0 -18162-3 0  9997
2 61261  53.1592   6.8862 0001177 102.5302  27.3067 15.49302469  5937
STARLINK-32446          
1 61262U 24175V   24298.91667824 -.01535930  00000+0 -34622-1 0  9999
2 61262  53.1592   6.9045 0001082  69.8792  50.9318 15.45754259  5941
CZ-2D R/B               
1 61445U 24177B   24298.43256213  .00415479  75305-4  10084-2 0  9991
2 61445  41.3895 348.7506 0016114  90.1891 270.0805 15.95191730  4294
CREW DRAGON 9           
1 61447U 24178A   24298.71203389  .00031337  00000+0  54762-3 0  9995
2 61447  51.6420  33.8287 0009267 102.6488  50.6267 15.50333707478454
VULCAN CENTAUR R/B      
1 61448U 24179A   24278.48676111  .00000148  00000+0  00000+0 0  9994
2 61448  30.0000 357.3088 0004000 321.8000 177.5900 15.23529867    07
CYSAT-1                 
1 61501U 98067WZ  24298.52780644  .00168778  00000+0  24334-2 0  9998
2 61501  51.6382  34.4184 0007653 101.0509 259.1343 15.54874754  2549
DORA                    
1 61502U 98067XA  24298.70941954  .00252993  00000+0  33084-2 0  9997
2 61502  51.6376  33.3823 0007148  66.4443 293.7299 15.57207918  2562
HULIANWAN GAOGUI-03 (H*)
1 61503U 24181A   24298.83070612 -.00000249  00000+0  00000+0 0  9997
2 61503   0.0296 325.0731 0001300 274.4671  16.1064  1.00272292   801
CZ-3B R/B               
1 61504U 24181B   24298.14536461  .00122797 -33693-6  24763-2 0  9990
2 61504  28.3909 218.9820 7219748 187.4329 148.7680  2.40695332   335
SJ-19 DEB               
1 61506U 24177D   24298.81860170  .00123521  00000+0  63805-3 0  9993
2 61506  41.6018 348.9081 0011077 127.5394 232.6461 15.79854988  2099
STARLINK-32174          
1 61509U 24183A   24298.91667824 -.00651810  00000+0 -29081-2 0  9991
2 61509  53.1544 324.8330 0000675  88.6955 238.6088 15.85107322  2761
STARLINK-32139          
1 61510U 24183B   24298.91667824 -.00653655  00000+0 -29125-2 0  9991
2 61510  53.1542 324.8299 0000666  93.1019 235.8089 15.85138855  2762
STARLINK-32140          
1 61511U 24183C   24298.91667824 -.00658553  00000+0 -29307-2 0  9996
2 61511  53.1542 324.8244 0000681 104.4099 227.0968 15.85175791  2662
STARLINK-32201          
1 61512U 24183D   24298.91667824 -.00665062  00000+0 -29566-2 0  9997
2 61512  53.1542 324.8196 0000660 102.6167 231.2442 15.85212666  2669
STARLINK-32030          
1 61513U 24183E   24298.91667824 -.00671161  00000+0 -29805-2 0  9991
2 61513  53.1544 324.8148 0000654 100.6245 235.6421 15.85249277  2761
STARLINK-31837          
1 61514U 24183F   24298.91667824 -.00682663  00000+0 -30251-2 0  9998
2 61514  53.1541 324.8053 0000663  95.7405 244.9599 15.85320382  2762
STARLINK-32136          
1 61515U 24183G   24298.91667824 -.00675440  00000+0 -29959-2 0  9997
2 61515  53.1542 324.8103 0000689 106.8897 231.5540 15.85283873  2779
STARLINK-32047          
1 61516U 24183H   24298.91667824 -.00687782  00000+0 -30443-2 0  9990
2 61516  53.1541 324.8003 0000664 103.7798 239.3991 15.85355941  2667
STARLINK-31756          
1 61517U 24183J   24298.91667824 -.00653832  14166-3 -20064-2 0  9990
2 61517  53.1538 324.5900 0000711  93.9365 350.7017 15.91099993  2767
STARLINK-32172          
1 61518U 24183K   24298.91667824 -.00698785  00000+0 -30865-2 0  9995
2 61518  53.1540 324.7916 0000649 101.0042 246.3377 15.85425221  2661
STARLINK-32338          
1 61519U 24183L   24298.91667824 -.00698220  00000+0 -30796-2 0  9993
2 61519  53.1544 324.7891 0000667 104.6747 244.1495 15.85453132  2590
STARLINK-32306          
1 61520U 24183M   24298.91667824 -.00702651  00000+0 -30957-2 0  9998
2 61520  53.1541 324.7853 0000669 100.1095 250.5067 15.85486379  2715
STARLINK-32297          
1 61521U 24183N   24298.91667824 -.00710612  00000+0 -31280-2 0  9995
2 61521  53.1540 324.7798 0000652  96.9664 256.2987 15.85523393  2766
STARLINK-32260          
1 61522U 24183P   24298.91667824 -.00715931  00000+0 -31480-2 0  9997
2 61522  53.1540 324.7750 0000675 101.9561 253.6303 15.85558004  2763
STARLINK-32305          
1 61523U 24183Q   24298.91667824 -.00729234  00000+0 -32004-2 0  9992
2 61523  53.1543 324.7662 0000694  78.4465 281.5845 15.85628151  2662
STARLINK-32296          
1 61524U 24183R   24298.91667824 -.00719987  00000+0 -31622-2 0  9992
2 61524  53.1541 324.7713 0000672 102.4840 255.0332 15.85591110  2558
STARLINK-32298          
1 61525U 24183S   24298.91667824 -.00732351  00000+0 -32101-2 0  9996
2 61525  53.1542 324.7616 0000730  91.0590 271.1988 15.85660595  2710
STARLINK-32293          
1 61526U 24183T   24298.91667824 -.00740873  00000+0 -32450-2 0  9992
2 61526  53.1540 324.7565 0000660  92.5916 272.0916 15.85696611  2766
STARLINK-32313          
1 61527U 24183U   24298.91667824 -.00751083  00000+0 -32828-2 0  9997
2 61527  53.1539 324.7467 0000677 109.2834 260.0632 15.85763566  2710
STARLINK-32319          
1 61528U 24183V   24298.91667824 -.00745035  00000+0 -32595-2 0  9999
2 61528  53.1541 324.7517 0000687 108.8181 258.2106 15.85729621  2765
STARLINK-32351          
1 61529U 24183W   24298.91667824 -.00759328  00000+0 -33163-2 0  9992
2 61529  53.1540 324.7414 0000646  99.6634 272.2697 15.85798807  2714
STARLINK-32261          
1 61530U 24183X   24298.91667824 -.00767437  00000+0 -33491-2 0  9998
2 61530  53.1541 324.7359 0000693 111.1781 263.4544 15.85833488  2774
STARLINK-32358          
1 61531U 24183Y   24298.91667824 -.00771892  00000+0 -33650-2 0  9996
2 61531  53.1541 324.7313 0000631 102.8724 273.8901 15.85865896  2669
STARLINK-11354 [DTC]    
1 61532U 24184A   24298.91667824 -.00742831  00000+0 -26856-2 0  9999
2 61532  53.1628 190.8603 0000509 112.3277 264.2606 15.89547612  2600
STARLINK-11323 [DTC]    
1 61533U 24184B   24298.91667824 -.00746695  00000+0 -26906-2 0  9998
2 61533  53.1625 190.8533 0000334  85.7248 294.1926 15.89622625  2714
STARLINK-11338 [DTC]    
1 61534U 24184C   24298.91667824 -.00742896  00000+0 -26802-2 0  9993
2 61534  53.1625 190.8571 0000340  90.6214 287.4064 15.89590071  2607
STARLINK-11362 [DTC]    
1 61535U 24184D   24298.91667824 -.00755002  00000+0 -27133-2 0  9995
2 61535  53.1625 190.8456 0000347  91.4877 292.0797 15.89693112  2763
STARLINK-11295 [DTC]    
1 61536U 24184E   24298.91667824 -.00752358  00000+0 -27078-2 0  9995
2 61536  53.1626 190.8495 0000385  95.3743 286.3869 15.89658036  2600
STARLINK-11331 [DTC]    
1 61537U 24184F   24298.91667824 -.00758705  00000+0 -27226-2 0  9993
2 61537  53.1625 190.8419 0000361  93.3095 292.0295 15.89730023  2769
STARLINK-11325 [DTC]    
1 61538U 24184G   24298.91667824 -.00765631  00000+0 -27451-2 0  9990
2 61538  53.1622 190.8376 0000364  93.6642 293.7132 15.89762129  2651
STARLINK-11332 [DTC]    
1 61539U 24184H   24298.91667824 -.00767021  00000+0 -27450-2 0  9995
2 61539  53.1624 190.8345 0000337  82.8121 306.1332 15.89801599  2603
STARLINK-11350 [DTC]    
1 61540U 24184J   24298.91667824 -.00783466  00000+0 -28036-2 0  9999
2 61540  53.1623 190.8304 0000390  96.3797 294.5793 15.89839369  2761
STARLINK-11357 [DTC]    
1 61541U 24184K   24298.91667824 -.00788257  00000+0 -28159-2 0  9999
2 61541  53.1622 190.8269 0000454 108.3301 284.1576 15.89883120  2608
STARLINK-11322 [DTC]    
1 61542U 24184L   24298.91667824 -.00807522  00000+0 -28854-2 0  9999
2 61542  53.1622 190.8226 0000535 116.6669 277.8429 15.89920556  2602
STARLINK-11364 [DTC]    
1 61543U 24184M   24298.91667824 -.00819473  00000+0 -29266-2 0  9996
2 61543  53.1621 190.8187 0000429  99.2820 297.0728 15.89957833  2766
STARLINK-11349 [DTC]    
1 61544U 24184N   24298.91667824 -.00827688  00000+0 -29530-2 0  9998
2 61544  53.1620 190.8149 0000448 108.4179 289.7077 15.89995303  2764
STARLINK-32406          
1 61545U 24184P   24298.91667824 -.01083611  00000+0 -47006-2 0  9998
2 61545  53.1613 190.8791 0000528  72.3262 294.2433 15.86711277  2716
STARLINK-32445          
1 61546U 24184Q   24298.91667824 -.01074766  00000+0 -46767-2 0  9993
2 61546  53.1614 190.8872 0000461  71.9729 290.7335 15.86627779  2767
STARLINK-32411          
1 61547U 24184R   24298.91667824 -.01085143  00000+0 -47170-2 0  9994
2 61547  53.1613 190.8828 0000604  88.9072 276.0368 15.86672510  2717
STARLINK-32424          
1 61548U 24184S   24298.91667824 -.01089476  00000+0 -47195-2 0  9995
2 61548  53.1613 190.8746 0000491  76.4569 292.3274 15.86753960  2710
STARLINK-32389          
1 61549U 24184T   24298.91667824 -.01102793  00000+0 -47639-2 0  9997
2 61549  53.1612 190.8661 0000554 111.6941 261.2659 15.86842097  2714
STARLINK-32476          
1 61550U 24184U   24298.91667824 -.01101448  00000+0 -47473-2 0  9991
2 61550  53.1615 190.8619 0000766  46.3823 328.7914 15.86882248  2760
STARLINK-32366          
1 61551U 24184V   24298.91667824 -.01094514  00000+0 -47343-2 0  9993
2 61551  53.1615 190.8701 0000445  70.4159 300.7491 15.86796646  2718
GAOFEN-12 05            
1 61571U 24186A   24298.94287794  .00001414  00000+0  19264-3 0  9990
2 61571  97.9152 304.1578 0000954  98.1765 261.9556 14.80237461   513
